{"type": "FeatureCollection", "features": [{"type": "Feature", "properties": {"norad_id": 2807, "name": "OPS 7218 (TRANSIT 16)", "group": "nnss", "lat": 69.19343098669341, "lon": -4.863565535904008, "alt_km": 1056.4104819123731, "timestamp": "2025-12-04T21:36:16.141486+00:00", "meta": {"OBJECT_NAME": "OPS 7218 (TRANSIT 16)", "OBJECT_ID": "1967-048A", "EPOCH": "2025-12-04T14:45:28.535040", "MEAN_MOTION": 13.5071993, "ECCENTRICITY": 0.00215353, "INCLINATION": 89.6734, "RA_OF_ASC_NODE": 354.2858, "ARG_OF_PERICENTER": 135.9479, "MEAN_ANOMALY": 347.1684, "EPHEMERIS_TYPE": 0, "CLASSIFICATION_TYPE": "U", "NORAD_CAT_ID": 2807, "ELEMENT_SET_NO": 999, "REV_AT_EPOCH": 88166, "BSTAR": 0.00025282413, "MEAN_MOTION_DOT": 1.73e-06, "MEAN_MOTION_DDOT": 0}, "tle": {"line1": "1 02807U 67048A   25338.61491360  .00000173  00000+0  25282-3 0  9995", "line2": "2 02807  89.6734 354.2858 0021535 135.9479 347.1684 13.50719930881665"}}, "geometry": {"type": "Point", "coordinates": [-4.863565535904008, 69.19343098669341]}}, {"type": "Feature", "properties": {"norad_id": 2965, "name": "OPS 4947 (TRANSIT 17)", "group": "nnss", "lat": 57.087367793631735, "lon": 26.19217591452333, "alt_km": 1085.9952437292304, "timestamp": "2025-12-04T21:36:16.141509+00:00", "meta": {"OBJECT_NAME": "OPS 4947 (TRANSIT 17)", "OBJECT_ID": "1967-092A", "EPOCH": "2025-12-04T14:49:48.775296", "MEAN_MOTION": 13.5345062, "ECCENTRICITY": 0.00458166, "INCLINATION": 89.2505, "RA_OF_ASC_NODE": 25.0548, "ARG_OF_PERICENTER": 258.9148, "MEAN_ANOMALY": 223.5735, "EPHEMERIS_TYPE": 0, "CLASSIFICATION_TYPE": "U", "NORAD_CAT_ID": 2965, "ELEMENT_SET_NO": 999, "REV_AT_EPOCH": 86987, "BSTAR": 0.00029348954, "MEAN_MOTION_DOT": 2.09e-06, "MEAN_MOTION_DDOT": 0}, "tle": {"line1": "1 02965U 67092A   25338.61792564  .00000209  00000+0  29349-3 0  9997", "line2": "2 02965  89.2505  25.0548 0045816 258.9148 223.5735 13.53450620869872"}}, "geometry": {"type": "Point", "coordinates": [26.19217591452333, 57.087367793631735]}}, {"type": "Feature", "properties": {"norad_id": 3133, "name": "OPS 7034 (TRANSIT 18)", "group": "nnss", "lat": -80.17240116597121, "lon": 93.46099729861079, "alt_km": 1053.4244669194486, "timestamp": "2025-12-04T21:36:16.141523+00:00", "meta": {"OBJECT_NAME": "OPS 7034 (TRANSIT 18)", "OBJECT_ID": "1968-012A", "EPOCH": "2025-12-04T14:04:32.594304", "MEAN_MOTION": 13.51562987, "ECCENTRICITY": 0.00730866, "INCLINATION": 90.027, "RA_OF_ASC_NODE": 273.6161, "ARG_OF_PERICENTER": 192.8598, "MEAN_ANOMALY": 341.0846, "EPHEMERIS_TYPE": 0, "CLASSIFICATION_TYPE": "U", "NORAD_CAT_ID": 3133, "ELEMENT_SET_NO": 999, "REV_AT_EPOCH": 56808, "BSTAR": 0.00024397941, "MEAN_MOTION_DOT": 1.71e-06, "MEAN_MOTION_DDOT": 0}, "tle": {"line1": "1 03133U 68012A   25338.58648836  .00000171  00000+0  24398-3 0  9993", "line2": "2 03133  90.0270 273.6161 0073086 192.8598 341.0846 13.51562987568082"}}, "geometry": {"type": "Point", "coordinates": [93.46099729861079, -80.17240116597121]}}, {"type": "Feature", "properties": {"norad_id": 4507, "name": "NNSS 19 (TRANSIT 19)", "group": "nnss", "lat": -56.057669946855725, "lon": 54.52002823231628, "alt_km": 1050.946300957571, "timestamp": "2025-12-04T21:36:16.141536+00:00", "meta": {"OBJECT_NAME": "NNSS 19 (TRANSIT 19)", "OBJECT_ID": "1970-067A", "EPOCH": "2025-12-04T15:05:33.806400", "MEAN_MOTION": 13.51311878, "ECCENTRICITY": 0.01710952, "INCLINATION": 90.0056, "RA_OF_ASC_NODE": 234.5282, "ARG_OF_PERICENTER": 317.0549, "MEAN_ANOMALY": 41.7349, "EPHEMERIS_TYPE": 0, "CLASSIFICATION_TYPE": "U", "NORAD_CAT_ID": 4507, "ELEMENT_SET_NO": 999, "REV_AT_EPOCH": 72112, "BSTAR": 0.0003412862, "MEAN_MOTION_DOT": 2.5e-06, "MEAN_MOTION_DDOT": 0}, "tle": {"line1": "1 04507U 70067A   25338.62886350  .00000250  00000+0  34129-3 0  9993", "line2": "2 04507  90.0056 234.5282 0171095 317.0549  41.7349 13.51311878721125"}}, "geometry": {"type": "Point", "coordinates": [54.52002823231628, -56.057669946855725]}}, {"type": "Feature", "properties": {"norad_id": 6909, "name": "NNSS 20 (TRANSIT 20)", "group": "nnss", "lat": 76.31511408560908, "lon": 74.5786873367436, "alt_km": 872.0206178997933, "timestamp": "2025-12-04T21:36:16.141548+00:00", "meta": {"OBJECT_NAME": "NNSS 20 (TRANSIT 20)", "OBJECT_ID": "1973-081A", "EPOCH": "2025-12-04T12:21:15.782400", "MEAN_MOTION": 13.71428746, "ECCENTRICITY": 0.01564972, "INCLINATION": 89.8557, "RA_OF_ASC_NODE": 255.1775, "ARG_OF_PERICENTER": 102.6717, "MEAN_ANOMALY": 259.1993, "EPHEMERIS_TYPE": 0, "CLASSIFICATION_TYPE": "U", "NORAD_CAT_ID": 6909, "ELEMENT_SET_NO": 999, "REV_AT_EPOCH": 80248, "BSTAR": 0.00034815659, "MEAN_MOTION_DOT": 3.53e-06, "MEAN_MOTION_DDOT": 0}, "tle": {"line1": "1 06909U 73081A   25338.51476600  .00000353  00000+0  34816-3 0  9998", "line2": "2 06909  89.8557 255.1775 0156497 102.6717 259.1993 13.71428746802489"}}, "geometry": {"type": "Point", "coordinates": [74.5786873367436, 76.31511408560908]}}, {"type": "Feature", "properties": {"norad_id": 10457, "name": "TRANSAT", "group": "nnss", "lat": -50.09281605950932, "lon": 78.45374914640674, "alt_km": 1085.4180203172155, "timestamp": "2025-12-04T21:36:16.141559+00:00", "meta": {"OBJECT_NAME": "TRANSAT", "OBJECT_ID": "1977-106A", "EPOCH": "2025-12-04T13:00:39.721824", "MEAN_MOTION": 13.48941685, "ECCENTRICITY": 0.00246514, "INCLINATION": 89.6483, "RA_OF_ASC_NODE": 78.8872, "ARG_OF_PERICENTER": 213.6688, "MEAN_ANOMALY": 158.2597, "EPHEMERIS_TYPE": 0, "CLASSIFICATION_TYPE": "U", "NORAD_CAT_ID": 10457, "ELEMENT_SET_NO": 999, "REV_AT_EPOCH": 36633, "BSTAR": 0.00020803837, "MEAN_MOTION_DOT": 1.4e-06, "MEAN_MOTION_DDOT": 0}, "tle": {"line1": "1 10457U 77106A   25338.54212641  .00000140  00000+0  20804-3 0  9995", "line2": "2 10457  89.6483  78.8872 0024651 213.6688 158.2597 13.48941685366336"}}, "geometry": {"type": "Point", "coordinates": [78.45374914640674, -50.09281605950932]}}, {"type": "Feature", "properties": {"norad_id": 12458, "name": "NOVA 1", "group": "nnss", "lat": -34.849393518937205, "lon": -88.40110186447139, "alt_km": 1178.766329004684, "timestamp": "2025-12-04T21:36:16.141570+00:00", "meta": {"OBJECT_NAME": "NOVA 1", "OBJECT_ID": "1981-044A", "EPOCH": "2025-12-04T13:19:13.010880", "MEAN_MOTION": 13.23277117, "ECCENTRICITY": 0.00156161, "INCLINATION": 89.8523, "RA_OF_ASC_NODE": 91.5009, "ARG_OF_PERICENTER": 124.1641, "MEAN_ANOMALY": 247.0159, "EPHEMERIS_TYPE": 0, "CLASSIFICATION_TYPE": "U", "NORAD_CAT_ID": 12458, "ELEMENT_SET_NO": 999, "REV_AT_EPOCH": 15078, "BSTAR": 0.0001594427, "MEAN_MOTION_DOT": 7.7e-07, "MEAN_MOTION_DDOT": 0}, "tle": {"line1": "1 12458U 81044A   25338.55501170  .00000077  00000+0  15944-3 0  9991", "line2": "2 12458  89.8523  91.5009 0015616 124.1641 247.0159 13.23277117150782"}}, "geometry": {"type": "Point", "coordinates": [-88.40110186447139, -34.849393518937205]}}, {"type": "Feature", "properties": {"norad_id": 15362, "name": "NOVA 3", "group": "nnss", "lat": 85.78767209627463, "lon": -97.89328032625461, "alt_km": 1169.7906705898877, "timestamp": "2025-12-04T21:36:16.141580+00:00", "meta": {"OBJECT_NAME": "NOVA 3", "OBJECT_ID": "1984-110A", "EPOCH": "2025-12-04T16:20:12.004800", "MEAN_MOTION": 13.23043125, "ECCENTRICITY": 0.00311574, "INCLINATION": 90.1225, "RA_OF_ASC_NODE": 80.4397, "ARG_OF_PERICENTER": 354.5615, "MEAN_ANOMALY": 134.4632, "EPHEMERIS_TYPE": 0, "CLASSIFICATION_TYPE": "U", "NORAD_CAT_ID": 15362, "ELEMENT_SET_NO": 999, "REV_AT_EPOCH": 98592, "BSTAR": 0.00017125134, "MEAN_MOTION_DOT": 8e-07, "MEAN_MOTION_DDOT": 0}, "tle": {"line1": "1 15362U 84110A   25338.68069450  .00000080  00000+0  17125-3 0  9996", "line2": "2 15362  90.1225  80.4397 0031157 354.5615 134.4632 13.23043125985925"}}, "geometry": {"type": "Point", "coordinates": [-97.89328032625461, 85.78767209627463]}}, {"type": "Feature", "properties": {"norad_id": 15935, "name": "OSCAR 30", "group": "nnss", "lat": 10.864568425426343, "lon": -80.24939307738093, "alt_km": 1066.4609223398274, "timestamp": "2025-12-04T21:36:16.141591+00:00", "meta": {"OBJECT_NAME": "OSCAR 30", "OBJECT_ID": "1985-066A", "EPOCH": "2025-12-04T08:27:50.109984", "MEAN_MOTION": 13.36076288, "ECCENTRICITY": 0.01693589, "INCLINATION": 90.1647, "RA_OF_ASC_NODE": 99.7101, "ARG_OF_PERICENTER": 107.3134, "MEAN_ANOMALY": 308.0142, "EPHEMERIS_TYPE": 0, "CLASSIFICATION_TYPE": "U", "NORAD_CAT_ID": 15935, "ELEMENT_SET_NO": 999, "REV_AT_EPOCH": 96341, "BSTAR": 0.00025336045, "MEAN_MOTION_DOT": 1.51e-06, "MEAN_MOTION_DDOT": 0}, "tle": {"line1": "1 15935U 85066A   25338.35266331  .00000151  00000+0  25336-3 0  9996", "line2": "2 15935  90.1647  99.7101 0169358 107.3134 308.0142 13.36076288963415"}}, "geometry": {"type": "Point", "coordinates": [-80.24939307738093, 10.864568425426343]}}, {"type": "Feature", "properties": {"norad_id": 15936, "name": "OSCAR 24", "group": "nnss", "lat": -68.07515377183698, "lon": -88.27749335074247, "alt_km": 1222.4370480881253, "timestamp": "2025-12-04T21:36:16.141601+00:00", "meta": {"OBJECT_NAME": "OSCAR 24", "OBJECT_ID": "1985-066B", "EPOCH": "2025-12-04T09:56:28.926816", "MEAN_MOTION": 13.35933943, "ECCENTRICITY": 0.01703752, "INCLINATION": 90.1787, "RA_OF_ASC_NODE": 92.1582, "ARG_OF_PERICENTER": 113.5804, "MEAN_ANOMALY": 317.2746, "EPHEMERIS_TYPE": 0, "CLASSIFICATION_TYPE": "U", "NORAD_CAT_ID": 15936, "ELEMENT_SET_NO": 999, "REV_AT_EPOCH": 96532, "BSTAR": 0.00020655807, "MEAN_MOTION_DOT": 1.25e-06, "MEAN_MOTION_DDOT": 0}, "tle": {"line1": "1 15936U 85066B   25338.41422369  .00000125  00000+0  20656-3 0  9990", "line2": "2 15936  90.1787  92.1582 0170375 113.5804 317.2746 13.35933943965328"}}, "geometry": {"type": "Point", "coordinates": [-88.27749335074247, -68.07515377183698]}}]}